NORAD_CAT_ID,OBJECT_NAME,OBJECT_TYPE,EPOCH,MEAN_MOTION,ECCENTRICITY,INCLINATION,RA_OF_ASC_NODE,ARG_OF_PERICENTER,MEAN_ANOMALY,BSTAR,MEAN_MOTION_DOT,MEAN_MOTION_DDOT,TLE_LINE0,TLE_LINE1,TLE_LINE2,SEMIMAJOR_AXIS,PERIOD,APOGEE,PERIGEE,DECAYED
53272.0,STARLINK-4122,PAYLOAD,2022-12-15 07:35:12,15.08851619,0.0001797,53.2128,83.0314,41.7714,318.3415,-0.00019198,-3.343e-05,0.0,0 STARLINK-4122,1 53272U 22086AG  22349.31612111 -.00003343  00000-0 -19198-3 0  9999,2 53272  53.2128  83.0314 0001797  41.7714 318.3415 15.08851619 22822,6917.845,95.437,540.953,538.467,0.0
53272.0,STARLINK-4122,PAYLOAD,2022-12-15 13:56:45,15.088337300000005,0.0001826,53.2122,81.8411,42.9537,317.1597,0.00016347,2.314e-05,0.0,0 STARLINK-4122,1 53272U 22086AG  22349.58108354  .00002314  00000-0  16347-3 0  9995,2 53272  53.2122  81.8411 0001826  42.9537 317.1597 15.08833730 22865,6917.9,95.438,541.028,538.501,0.0
53272.0,STARLINK-4122,PAYLOAD,2022-12-15 15:32:08,15.08834343,0.0001823,53.2122,81.544,43.0441,317.0693,0.00017364,2.476e-05,0.0,0 STARLINK-4122,1 53272U 22086AG  22349.64732386  .00002476  00000-0  17364-3 0  9999,2 53272  53.2122  81.5440 0001823  43.0441 317.0693 15.08834343 23056,6917.898,95.438,541.024,538.502,0.0
53272.0,STARLINK-4122,PAYLOAD,2022-12-16 12:12:09,15.08842176,0.0001963,53.2121,77.6782,44.5089,315.606,5.7056e-05,6.2e-06,0.0,0 STARLINK-4122,1 53272U 22086AG  22350.50844235  .00000620  00000-0  57056-4 0  9995,2 53272  53.2121  77.6782 0001963  44.5089 315.6060 15.08842176 23188,6917.874,95.437,541.097,538.381,0.0
53272.0,STARLINK-4122,PAYLOAD,2022-12-16 15:22:55,15.0883786,0.0001802,53.2118,77.0837,45.0425,315.0713,-2.0272e-05,-6.11e-06,0.0,0 STARLINK-4122,1 53272U 22086AG  22350.64092454 -.00000611  00000-0 -20272-4 0  9990,2 53272  53.2118  77.0837 0001802  45.0425 315.0713 15.08837860 23027,6917.887,95.438,540.999,538.505,0.0
53272.0,STARLINK-4122,PAYLOAD,2022-12-16 23:19:52,15.08830621,0.0001931,53.2122,75.597,43.6298,316.4847,-9.6117e-05,-1.817e-05,0.0,0 STARLINK-4122,1 53272U 22086AG  22350.97213003 -.00001817  00000-0 -96117-4 0  9991,2 53272  53.2122  75.5970 0001931  43.6298 316.4847 15.08830621 23074,6917.909000000002,95.438,541.11,538.438,0.0
53272.0,STARLINK-4122,PAYLOAD,2022-12-17 12:02:57,15.08826994,0.0001861,53.2126,73.2178,44.9568,315.1574,2.9392e-05,1.8e-06,0.0,0 STARLINK-4122,1 53272U 22086AG  22351.50205868  .00000180  00000-0  29392-4 0  9992,2 53272  53.2126  73.2178 0001861  44.9568 315.1574 15.08826994 23339,6917.92,95.438,541.073,538.498,0.0
53272.0,STARLINK-4122,PAYLOAD,2022-12-17 16:49:07,15.0883271,0.0001828,53.2127,72.3253,45.7529,314.3613,2.8961e-05,1.73e-06,0.0,0 STARLINK-4122,1 53272U 22086AG  22351.70077631  .00000173  00000-0  28961-4 0  9992,2 53272  53.2127  72.3253 0001828  45.7529 314.3613 15.08832710 23364,6917.903,95.438,541.0319999999998,538.503,0.0
53272.0,STARLINK-4122,PAYLOAD,2022-12-18 11:53:44,15.08835778,0.0001951,53.2129,68.7586,40.3968,319.7169,0.00010941,1.453e-05,0.0,0 STARLINK-4122,1 53272U 22086AG  22352.49565447  .00001453  00000-0  10941-3 0  9996,2 53272  53.2129  68.7586 0001951  40.3968 319.7169 15.08835778 23305,6917.893,95.438,541.1080000000002,538.409,0.0
53272.0,STARLINK-4122,PAYLOAD,2022-12-18 16:39:54,15.08834343,0.0001956,53.2129,67.8662,39.8808,320.2328,9.113e-05,1.162e-05,0.0,0 STARLINK-4122,1 53272U 22086AG  22352.69437662  .00001162  00000-0  91130-4 0  9992,2 53272  53.2129  67.8662 0001956  39.8808 320.2328 15.08834343 23515,6917.898,95.438,541.116,538.41,0.0
53272.0,STARLINK-4122,PAYLOAD,2022-12-19 05:22:59,15.08827429,0.0001705,53.2126,65.4868,37.0092,323.1018,0.00017652,2.521e-05,0.0,0 STARLINK-4122,1 53272U 22086AG  22353.22430416  .00002521  00000-0  17652-3 0  9998,2 53272  53.2126  65.4868 0001705  37.0092 323.1018 15.08827429 23415,6917.919,95.438,540.9630000000002,538.604,0.0
53272.0,STARLINK-4122,PAYLOAD,2022-12-19 16:30:41,15.08835992,0.0001925,53.2126,63.4046,39.2375,320.8757,0.00016831,2.391e-05,0.0,0 STARLINK-4122,1 53272U 22086AG  22353.68798409  .00002391  00000-0  16831-3 0  9990,2 53272  53.2126  63.4046 0001925  39.2375 320.8757 15.08835992 23668,6917.893,95.438,541.089,538.4259999999998,0.0
53272.0,STARLINK-4122,PAYLOAD,2022-12-19 21:16:50,15.08843217,0.0001907,53.2126,62.5128,34.4776,325.634,0.00020331,2.949e-05,0.0,0 STARLINK-4122,1 53272U 22086AG  22353.88670006  .00002949  00000-0  20331-3 0  9993,2 53272  53.2126  62.5128 0001907  34.4776 325.6340 15.08843217 23515,6917.871,95.437,541.055,538.4159999999998,0.0
53272.0,STARLINK-4122,PAYLOAD,2022-12-20 11:35:18,15.08855583,0.000214,53.2121,59.8335,33.6681,326.4446,0.00048157,7.388e-05,0.0,0 STARLINK-4122,1 53272U 22086AG  22354.48285487  .00007388  00000-0  48157-3 0  9993,2 53272  53.2121  59.8335 0002140  33.6681 326.4446 15.08855583 23789,6917.833000000001,95.437,541.178,538.217,0.0
53272.0,STARLINK-4122,PAYLOAD,2022-12-21 03:29:10,15.08844845,0.0002132,53.2119,56.8625,39.0498,321.0647,9.714e-05,1.258e-05,0.0,0 STARLINK-4122,1 53272U 22086AG  22355.14525614  .00001258  00000-0  97140-4 0  9993,2 53272  53.2119  56.8625 0002132  39.0498 321.0647 15.08844845 23707,6917.866,95.437,541.205,538.256,0.0
53272.0,STARLINK-4122,PAYLOAD,2022-12-21 13:01:29,15.0882633,0.0002006,53.2121,55.0759,36.3422,323.7706,-0.00024038,-4.11e-05,0.0,0 STARLINK-4122,1 53272U 22086AG  22355.54270486 -.00004110  00000-0 -24038-3 0  9998,2 53272  53.2121  55.0759 0002006  36.3422 323.7706 15.08826330 23766,6917.922,95.438,541.175,538.399,0.0
53272.0,STARLINK-4122,PAYLOAD,2022-12-22 12:52:16,15.08847113,0.0002075,53.2125,50.6162,41.2952,318.8196,8.054399999999999e-05,9.94e-06,0.0,0 STARLINK-4122,1 53272U 22086AG  22356.53629966  .00000994  00000-0  80544-4 0  9998,2 53272  53.2125  50.6162 0002075  41.2952 318.8196 15.08847113 23915,6917.859,95.437,541.159,538.288,0.0
53272.0,STARLINK-4122,PAYLOAD,2022-12-22 16:03:02,15.08840674,0.0002185,53.2119,50.0209,39.8845,320.2307,9.0838e-06,-1.44e-06,0.0,0 STARLINK-4122,1 53272U 22086AG  22356.66878362 -.00000144  00000-0  90838-5 0  9994,2 53272  53.2119  50.0209 0002185  39.8845 320.2307 15.08840674 23938,6917.878000000002,95.438,541.255,538.232,0.0
53272.0,STARLINK-4122,PAYLOAD,2022-12-23 03:10:45,15.08833282,0.0002212,53.2124,47.9396,38.4781,321.6368,0.00034526,5.21e-05,0.0,0 STARLINK-4122,1 53272U 22086AG  22357.13247275  .00005210  00000-0  34526-3 0  9998,2 53272  53.2124  47.9396 0002212  38.4781 321.6368 15.08833282 24009,6917.901,95.438,541.2959999999998,538.236,0.0
53272.0,STARLINK-4122,PAYLOAD,2022-12-23 11:07:41,15.08833424,0.0002215,53.2121,46.4528,39.155,320.9602,0.0002079,3.022e-05,0.0,0 STARLINK-4122,1 53272U 22086AG  22357.46367389  .00003022  00000-0  20790-3 0  9990,2 53272  53.2121  46.4528 0002215  39.1550 320.9602 15.08833424 24238,6917.9,95.438,541.298,538.2330000000002,0.0
53272.0,STARLINK-4122,PAYLOAD,2022-12-24 03:01:32,15.08854345,0.0002245,53.2118,43.479,39.8229,320.2928,0.00052651,8.105e-05,0.0,0 STARLINK-4122,1 53272U 22086AG  22358.12606779  .00008105  00000-0  52651-3 0  9991,2 53272  53.2118  43.4790 0002245  39.8229 320.2928 15.08854345 24155,6917.837,95.437,541.255,538.148,0.0
53272.0,STARLINK-4122,PAYLOAD,2022-12-24 09:23:04,15.08851404,0.0002243,53.2119,42.2894,39.265,320.8504,0.00050152,7.705e-05,0.0,0 STARLINK-4122,1 53272U 22086AG  22358.39102802  .00007705  00000-0  50152-3 0  9997,2 53272  53.2119  42.2894 0002243  39.2650 320.8504 15.08851404 24371,6917.846,95.437,541.262,538.159,0.0
53272.0,STARLINK-4122,PAYLOAD,2022-12-24 20:30:46,15.08851416,0.0002258,53.212,40.2072,39.8924,320.2234,0.00033427,5.037e-05,0.0,0 STARLINK-4122,1 53272U 22086AG  22358.85470554  .00005037  00000-0  33427-3 0  9992,2 53272  53.2120  40.2072 0002258  39.8924 320.2234 15.08851416 24440,6917.845,95.437,541.273,538.148,0.0
53272.0,STARLINK-4122,PAYLOAD,2022-12-25 02:52:19,15.08849246,0.000226,53.2119,39.0176,42.5535,317.5632,0.00020141,2.919e-05,0.0,0 STARLINK-4122,1 53272U 22086AG  22359.11966477  .00002919  00000-0  20141-3 0  9991,2 53272  53.2119  39.0176 0002260  42.5535 317.5632 15.08849246 24305,6917.852,95.437,541.281,538.154,0.0
53272.0,STARLINK-4122,PAYLOAD,2022-12-25 12:24:37,15.08845022,0.0002284,53.2121,37.2335,43.38399999999999,316.7332,9.1951e-05,1.176e-05,0.0,0 STARLINK-4122,1 53272U 22086AG  22359.51710545  .00001176  00000-0  91951-4 0  9990,2 53272  53.2121  37.2335 0002284  43.3840 316.7332 15.08845022 24541,6917.865,95.437,541.31,538.15,0.0
53272.0,STARLINK-4122,PAYLOAD,2022-12-25 20:21:33,15.08839509,0.0002319,53.2125,35.747,40.4775,319.6389,3.3537e-06,-2.35e-06,0.0,0 STARLINK-4122,1 53272U 22086AG  22359.84830805 -.00000235  00000-0  33537-5 0  9991,2 53272  53.2125  35.7470 0002319  40.4775 319.6389 15.08839509 24594,6917.882,95.438,541.351,538.143,0.0
53272.0,STARLINK-4122,PAYLOAD,2022-12-26 12:15:25,15.08836376,0.0002384,53.2118,32.7735,35.148,324.9669,3.7475e-06,-2.29e-06,0.0,0 STARLINK-4122,1 53272U 22086AG  22360.51071299 -.00000229  00000-0  37475-5 0  9999,2 53272  53.2118  32.7735 0002384  35.1480 324.9669 15.08836376 24514,6917.891,95.438,541.406,538.107,0.0
53272.0,STARLINK-4122,PAYLOAD,2022-12-27 10:30:48,15.08848038,0.0002213,53.2123,28.6094,35.9208,324.1933,0.00027963,4.166e-05,0.0,0 STARLINK-4122,1 53272U 22086AG  22361.43806612  .00004166  00000-0  27963-3 0  9998,2 53272  53.2123  28.6094 0002213  35.9208 324.1933 15.08848038 24658,6917.856,95.437,541.252,538.19,0.0
53272.0,STARLINK-4122,PAYLOAD,2022-12-27 18:27:44,15.08855893,0.000226,53.2121,27.1221,36.967,323.1478,0.00041521,6.329e-05,0.0,0 STARLINK-4122,1 53272U 22086AG  22361.76926269  .00006329  00000-0  41521-3 0  9994,2 53272  53.2121  27.1221 0002260  36.9670 323.1478 15.08855893 24883,6917.831999999999,95.437,541.26,538.133,0.0
